TOMORROW-S2             
1 60485U 24149T   26068.75188364  .00008133  00000+0  27683-3 0  9990
2 60485  97.3857 150.0385 0001648 234.3331 125.7757 15.30674935 86869
STARLINK-35337          
1 65831U 25221J   26068.35940693  .00023252  00000+0  79446-3 0  9992
2 65831  53.1594  89.8199 0001001  89.3245 270.7870 15.30210838 26032
